NORAD_CAT_ID,OBJECT_NAME,OBJECT_TYPE,EPOCH,MEAN_MOTION,ECCENTRICITY,INCLINATION,RA_OF_ASC_NODE,ARG_OF_PERICENTER,MEAN_ANOMALY,BSTAR,MEAN_MOTION_DOT,MEAN_MOTION_DDOT,TLE_LINE0,TLE_LINE1,TLE_LINE2,SEMIMAJOR_AXIS,PERIOD,APOGEE,PERIGEE,DECAYED
52987.0,STARLINK-4259,PAYLOAD,2023-11-01 21:10:27,15.0886215,0.0002263,53.2195,359.457,91.3871,268.7381,0.00082261,0.00012836,0.0,0 STARLINK-4259,1 52987U 22076B   23305.88226141  .00012836  00000-0  82261-3 0  9995,2 52987  53.2195 359.4570 0002263  91.3871 268.7381 15.08862150 73059,6917.813,95.436,541.243,538.112,0.0
52987.0,STARLINK-4259,PAYLOAD,2023-11-02 03:32:00,15.08818577,0.0001765,53.2199,358.2681,99.7303,260.3889,-0.00053955,-8.86e-05,0.0,0 STARLINK-4259,1 52987U 22076B   23306.14722934 -.00008860  00000-0 -53955-3 0  9998,2 52987  53.2199 358.2681 0001765  99.7303 260.3889 15.08818577 73562,6917.946,95.439,541.032,538.59,0.0
52987.0,STARLINK-4259,PAYLOAD,2023-11-02 13:04:18,15.08862961,0.0001853,53.2195,356.483,100.4981,259.622,0.00065357,0.00010135,0.0,0 STARLINK-4259,1 52987U 22076B   23306.54465578  .00010135  00000-0  65357-3 0  9995,2 52987  53.2195 356.4830 0001853 100.4981 259.6220 15.08862961 73627,6917.81,95.436,540.957,538.393,0.0
52987.0,STARLINK-4259,PAYLOAD,2023-11-02 21:01:14,15.08842055,0.000197,53.2194,354.9965,84.3022,275.8195,0.00011865,1.601e-05,0.0,0 STARLINK-4259,1 52987U 22076B   23306.87586190  .00001601  00000-0  11865-3 0  9998,2 52987  53.2194 354.9965 0001970  84.3022 275.8195 15.08842055 73672,6917.874,95.437,541.102,538.376,0.0
52987.0,STARLINK-4259,PAYLOAD,2023-11-03 12:55:05,15.08851348,0.0001762,53.2193,352.0233,86.845,273.2744,0.00039509,6.007e-05,0.0,0 STARLINK-4259,1 52987U 22076B   23307.53825878  .00006007  00000-0  39509-3 0  9991,2 52987  53.2193 352.0233 0001762  86.8450 273.2744 15.08851348 73306,6917.846,95.437,540.93,538.492,0.0
52987.0,STARLINK-4259,PAYLOAD,2023-11-04 03:13:34,15.08842166,0.0001842,53.2183,349.3443,93.0797,267.0406,0.0002182,3.186e-05,0.0,0 STARLINK-4259,1 52987U 22076B   23308.13442156  .00003186  00000-0  21820-3 0  9994,2 52987  53.2183 349.3443 0001842  93.0797 267.0406 15.08842166 73865,6917.874,95.437,541.013,538.464,0.0
52987.0,STARLINK-4259,PAYLOAD,2023-11-04 09:35:06,15.08855064,0.0001613,53.2176,348.1569,88.4553,271.6624,0.00069327,0.00010767,0.0,0 STARLINK-4259,1 52987U 22076B   23308.39937897  .00010767  00000-0  69327-3 0  9990,2 52987  53.2176 348.1569 0001613  88.4553 271.6624 15.08855064 73434,6917.834,95.437,540.815,538.583,0.0
52987.0,STARLINK-4259,PAYLOAD,2023-11-05 03:04:20,15.08850982,9.61e-05,53.2179,344.8856,53.8342,306.2739,0.00078919,0.00012298,0.0,0 STARLINK-4259,1 52987U 22076B   23309.12802034  .00012298  00000-0  78919-3 0  9994,2 52987  53.2179 344.8856 0000961  53.8342 306.2739 15.08850982 74017,6917.847,95.437,540.377,539.047,0.0
52987.0,STARLINK-4259,PAYLOAD,2023-11-05 09:25:53,15.08861165,0.0001457,53.2175,343.6968,90.2166,269.8993,0.00098437,0.00015422,0.0,0 STARLINK-4259,1 52987U 22076B   23309.39297641  .00015422  00000-0  98437-3 0  9994,2 52987  53.2175 343.6968 0001457  90.2166 269.8993 15.08861165 73586,6917.816,95.436,540.689,538.673,0.0
52987.0,STARLINK-4259,PAYLOAD,2023-11-05 18:58:11,15.08854587,0.0001213,53.2178,341.9137,87.7017,272.4114,0.00028933,4.322e-05,0.0,0 STARLINK-4259,1 52987U 22076B   23309.79041354  .00004322  00000-0  28933-3 0  9997,2 52987  53.2178 341.9137 0001213  87.7017 272.4114 15.08854587 73646,6917.836,95.437,540.54,538.862,0.0
52987.0,STARLINK-4259,PAYLOAD,2023-11-06 02:55:07,15.08850827,0.000192,53.2181,340.4308,104.2581,255.8624,0.00019925,2.885e-05,0.0,0 STARLINK-4259,1 52987U 22076B   23310.12161564  .00002885  00000-0  19925-3 0  9995,2 52987  53.2181 340.4308 0001920 104.2581 255.8624 15.08850827 74162,6917.847,95.437,541.041,538.384,0.0
52987.0,STARLINK-4259,PAYLOAD,2023-11-06 09:16:39,15.08861599,0.0001641,53.2184,339.2403,93.1509,266.9671,0.00042008,6.408e-05,0.0,0 STARLINK-4259,1 52987U 22076B   23310.38656910  .00006408  00000-0  42008-3 0  9990,2 52987  53.2184 339.2403 0001641  93.1509 266.9671 15.08861599 74201,6917.814,95.436,540.815,538.544,0.0
52987.0,STARLINK-4259,PAYLOAD,2023-11-06 18:48:59,15.0882853,0.000163,53.2162,337.4534,79.9268,280.1908,-0.00026954,-4.574e-05,0.0,0 STARLINK-4259,1 52987U 22076B   23310.78402159 -.00004574  00000-0 -26954-3 0  9994,2 52987  53.2162 337.4534 0001630  79.9268 280.1908 15.08828530 74269,6917.915,95.438,540.908,538.653,0.0
52987.0,STARLINK-4259,PAYLOAD,2023-11-07 10:42:53,15.08788493,0.000158,53.2168,334.4804,93.6759,266.4414,-0.0006674,-0.00010879,0.0,0 STARLINK-4259,1 52987U 22076B   23311.44645304 -.00010879  00000-0 -66740-3 0  9991,2 52987  53.2168 334.4804 0001580  93.6759 266.4414 15.08788493 74367,6918.038,95.441,540.996,538.81,0.0
52987.0,STARLINK-4259,PAYLOAD,2023-11-07 18:39:48,15.08830907,8.3e-05,53.2167,332.996,122.8835,237.2238,0.0004929,7.563e-05,0.0,0 STARLINK-4259,1 52987U 22076B   23311.77764076  .00007563  00000-0  49290-3 0  9990,2 52987  53.2167 332.9960 0000830 122.8835 237.2238 15.08830907 74413,6917.908,95.438,540.347,539.199,0.0
52987.0,STARLINK-4259,PAYLOAD,2023-11-08 10:33:38,15.08863874,0.0001453,53.2171,330.0177,78.5976,281.5179,0.00086668,0.00013541,0.0,0 STARLINK-4259,1 52987U 22076B   23312.44003320  .00013541  00000-0  86668-3 0  9996,2 52987  53.2171 330.0177 0001453  78.5976 281.5179 15.08863874 74518,6917.807,95.436,540.678,538.667,0.0
52987.0,STARLINK-4259,PAYLOAD,2023-11-08 18:30:35,15.08846061,0.000166,53.2147,328.5382,77.5817,282.536,0.00063835,9.888e-05,0.0,0 STARLINK-4259,1 52987U 22076B   23312.77124166  .00009888  00000-0  63835-3 0  9994,2 52987  53.2147 328.5382 0001660  77.5817 282.5360 15.08846061 74561,6917.862,95.437,540.875,538.578,0.0
52987.0,STARLINK-4259,PAYLOAD,2023-11-09 10:24:25,15.08858382,0.0001448,53.2168,325.5588,82.9854,277.1303,0.00050186,7.712e-05,0.0,0 STARLINK-4259,1 52987U 22076B   23313.43363281  .00007712  00000-0  50186-3 0  9990,2 52987  53.2168 325.5588 0001448  82.9854 277.1303 15.08858382 74199,6917.824,95.436,540.691,538.688,0.0
52987.0,STARLINK-4259,PAYLOAD,2023-11-10 00:42:53,15.0884909,0.0001611,53.2172,322.8852,82.6056,277.5119,-8.1501e-05,-1.585e-05,0.0,0 STARLINK-4259,1 52987U 22076B   23314.02979123 -.00001585  00000-0 -81501-4 0  9994,2 52987  53.2172 322.8852 0001611  82.6056 277.5119 15.08849090 74758,6917.853,95.437,540.832,538.603,0.0
52987.0,STARLINK-4259,PAYLOAD,2023-11-10 07:04:26,15.0884905,0.0001497,53.2172,321.6926,91.2353,268.8811,4.7607e-05,4.7e-06,0.0,0 STARLINK-4259,1 52987U 22076B   23314.29474950  .00000470  00000-0  47607-4 0  9990,2 52987  53.2172 321.6926 0001497  91.2353 268.8811 15.08849050 74326,6917.853,95.437,540.753,538.682,0.0
52987.0,STARLINK-4259,PAYLOAD,2023-11-10 18:12:08,15.08848774,0.0001441,53.2172,319.6119,86.7631,273.3526,0.00023438,3.445e-05,0.0,0 STARLINK-4259,1 52987U 22076B   23314.75842966  .00003445  00000-0  23438-3 0  9997,2 52987  53.2172 319.6119 0001441  86.7631 273.3526 15.08848774 74397,6917.854,95.437,540.715,538.722,0.0
52987.0,STARLINK-4259,PAYLOAD,2023-11-11 03:44:27,15.08843026,0.000166,53.2168,317.8277,88.7248,271.3934,0.00011781,1.588e-05,0.0,0 STARLINK-4259,1 52987U 22076B   23315.15587165  .00001588  00000-0  11781-3 0  9993,2 52987  53.2168 317.8277 0001660  88.7248 271.3934 15.08843026 74921,6917.871,95.437,540.885,538.588,0.0
52987.0,STARLINK-4259,PAYLOAD,2023-11-11 10:05:59,15.08848709,0.0001678,53.2171,316.6362,96.3746,263.7437,0.00019041,2.744e-05,0.0,0 STARLINK-4259,1 52987U 22076B   23315.42082901  .00002744  00000-0  19041-3 0  9993,2 52987  53.2171 316.6362 0001678  96.3746 263.7437 15.08848709 74492,6917.854,95.437,540.88,538.558,0.0
52987.0,STARLINK-4259,PAYLOAD,2023-11-12 03:35:14,15.08839242,0.0001741,53.2167,313.3626,104.2825,255.8361,3.9677e-05,3.43e-06,0.0,0 STARLINK-4259,1 52987U 22076B   23316.14947326  .00000343  00000-0  39677-4 0  9995,2 52987  53.2167 313.3626 0001741 104.2825 255.8361 15.08839242 75077,6917.883,95.438,540.952,538.543,0.0
52987.0,STARLINK-4259,PAYLOAD,2023-11-12 09:56:47,15.08841016,0.0001613,53.2176,312.1757,88.7737,271.344,8.6144e-05,1.083e-05,0.0,0 STARLINK-4259,1 52987U 22076B   23316.41443378  .00001083  00000-0  86144-4 0  9996,2 52987  53.2176 312.1757 0001613  88.7737 271.3440 15.08841016 74640,6917.877,95.437,540.858,538.626,0.0
52987.0,STARLINK-4259,PAYLOAD,2023-11-12 16:18:19,15.08840942,0.0001603,53.2174,310.9859,88.1574,271.9601,7.0849e-05,8.4e-06,0.0,0 STARLINK-4259,1 52987U 22076B   23316.67939397  .00000840  00000-0  70849-4 0  9990,2 52987  53.2174 310.9859 0001603  88.1574 271.9601 15.08840942 74685,6917.878,95.437,540.851,538.634,0.0
52987.0,STARLINK-4259,PAYLOAD,2023-11-13 06:36:47,15.08849461,0.0001548,53.2171,308.3099,90.2736,269.8433,0.00022978,3.372e-05,0.0,0 STARLINK-4259,1 52987U 22076B   23317.27554921  .00003372  00000-0  22978-3 0  9995,2 52987  53.2171 308.3099 0001548  90.2736 269.8433 15.08849461 75248,6917.851,95.437,540.787,538.646,0.0
52987.0,STARLINK-4259,PAYLOAD,2023-11-13 22:30:39,15.0884163,0.0001684,53.218,305.3388,94.1961,265.9224,0.00014508,2.022e-05,0.0,0 STARLINK-4259,1 52987U 22076B   23317.93795263  .00002022  00000-0  14508-3 0  9995,2 52987  53.2180 305.3388 0001684  94.1961 265.9224 15.08841630 74873,6917.875,95.437,540.905,538.575,0.0
52987.0,STARLINK-4259,PAYLOAD,2023-11-14 03:16:48,15.08841127,0.0001725,53.2178,304.4439,101.1667,258.952,6.6112e-05,7.64e-06,0.0,0 STARLINK-4259,1 52987U 22076B   23318.13667210  .00000764  00000-0  66112-4 0  9998,2 52987  53.2178 304.4439 0001725 101.1667 258.9520 15.08841127 75373,6917.877,95.437,540.935,538.549,0.0
52987.0,STARLINK-4259,PAYLOAD,2023-11-14 09:38:20,15.08846789,0.0001573,53.2175,303.255,98.1482,261.9688,0.00014002,1.942e-05,0.0,0 STARLINK-4259,1 52987U 22076B   23318.40162859  .00001942  00000-0  14002-3 0  9996,2 52987  53.2175 303.2550 0001573  98.1482 261.9688 15.08846789 74942,6917.86,95.437,540.813,538.636,0.0
